[{"OBJECT_NAME":"STARLINK-34959","OBJECT_ID":"2025-179M","EPOCH":"2026-03-09T16:38:13.453728","MEAN_MOTION":15.05647685,"ECCENTRICITY":5.195e-5,"INCLINATION":97.6022,"RA_OF_ASC_NODE":112.8869,"ARG_OF_PERICENTER":150.1966,"MEAN_ANOMALY":209.9291,"EPHEMERIS_TYPE":0,"CLASSIFICATION_TYPE":"U","NORAD_CAT_ID":65246,"ELEMENT_SET_NO":999,"REV_AT_EPOCH":3182,"BSTAR":8.6911505e-5,"MEAN_MOTION_DOT":1.193e-5,"MEAN_MOTION_DDOT":0},{"OBJECT_NAME":"PSLV DEB","OBJECT_ID":"2001-049CY","EPOCH":"2026-03-09T18:20:37.296384","MEAN_MOTION":15.08389698,"ECCENTRICITY":0.00190632,"INCLINATION":97.9861,"RA_OF_ASC_NODE":156.2845,"ARG_OF_PERICENTER":340.3269,"MEAN_ANOMALY":19.722,"EPHEMERIS_TYPE":0,"CLASSIFICATION_TYPE":"U","NORAD_CAT_ID":27152,"ELEMENT_SET_NO":999,"REV_AT_EPOCH":30598,"BSTAR":0.00053695108,"MEAN_MOTION_DOT":8.318e-5,"MEAN_MOTION_DDOT":0}]
